[{"OBJECT_NAME":"YAOGAN-36 05C","OBJECT_ID":"2023-106E","EPOCH":"2026-03-09T23:02:42.692640","MEAN_MOTION":15.17284181,"ECCENTRICITY":0.00091151,"INCLINATION":34.9946,"RA_OF_ASC_NODE":339.3602,"ARG_OF_PERICENTER":188.1733,"MEAN_ANOMALY":171.8833,"EPHEMERIS_TYPE":0,"CLASSIFICATION_TYPE":"U","NORAD_CAT_ID":57456,"ELEMENT_SET_NO":999,"REV_AT_EPOCH":14578,"BSTAR":0.00035217341,"MEAN_MOTION_DOT":7.158e-5,"MEAN_MOTION_DDOT":0},{"OBJECT_NAME":"CZ-6A DEB","OBJECT_ID":"2022-151KK","EPOCH":"2026-03-09T15:42:53.993376","MEAN_MOTION":15.13886585,"ECCENTRICITY":0.0019766,"INCLINATION":98.5478,"RA_OF_ASC_NODE":140.8365,"ARG_OF_PERICENTER":144.334,"MEAN_ANOMALY":215.9214,"EPHEMERIS_TYPE":0,"CLASSIFICATION_TYPE":"U","NORAD_CAT_ID":54531,"ELEMENT_SET_NO":999,"REV_AT_EPOCH":8393,"BSTAR":0.0066445138,"MEAN_MOTION_DOT":0.00122683,"MEAN_MOTION_DDOT":0}]
